[{"OBJECT_NAME":"SKYSAT-A","OBJECT_ID":"2013-066C","EPOCH":"2026-03-07T14:01:33.348000","MEAN_MOTION":15.12334062,"ECCENTRICITY":0.0020279,"INCLINATION":97.3953,"RA_OF_ASC_NODE":119.1932,"ARG_OF_PERICENTER":308.3336,"MEAN_ANOMALY":51.6071,"EPHEMERIS_TYPE":0,"CLASSIFICATION_TYPE":"U","NORAD_CAT_ID":39418,"ELEMENT_SET_NO":999,"REV_AT_EPOCH":67312,"BSTAR":0.00024222774,"MEAN_MOTION_DOT":4.153e-5,"MEAN_MOTION_DDOT":0},{"OBJECT_NAME":"SKYSAT-B","OBJECT_ID":"2014-037D","EPOCH":"2026-03-07T13:51:18.593856","MEAN_MOTION":14.87716938,"ECCENTRICITY":0.00042732,"INCLINATION":98.3727,"RA_OF_ASC_NODE":19.8426,"ARG_OF_PERICENTER":242.0706,"MEAN_ANOMALY":118.0076,"EPHEMERIS_TYPE":0,"CLASSIFICATION_TYPE":"U","NORAD_CAT_ID":40072,"ELEMENT_SET_NO":999,"REV_AT_EPOCH":63085,"BSTAR":0.00026852968,"MEAN_MOTION_DOT":2.387e-5,"MEAN_MOTION_DDOT":0},{"OBJECT_NAME":"SKYSAT-C1","OBJECT_ID":"2016-040C","EPOCH":"2026-03-07T14:44:19.940352","MEAN_MOTION":15.34459732,"ECCENTRICITY":0.00037157,"INCLINATION":96.9701,"RA_OF_ASC_NODE":103.896,"ARG_OF_PERICENTER":57.3782,"MEAN_ANOMALY":302.782,"EPHEMERIS_TYPE":0,"CLASSIFICATION_TYPE":"U","NORAD_CAT_ID":41601,"ELEMENT_SET_NO":999,"REV_AT_EPOCH":54228,"BSTAR":0.00039190207,"MEAN_MOTION_DOT":0.00013017,"MEAN_MOTION_DDOT":0},{"OBJECT_NAME":"SKYSAT-C4","OBJECT_ID":"2016-058B","EPOCH":"2026-03-07T15:33:11.169216","MEAN_MOTION":15.45286446,"ECCENTRICITY":8.181e-5,"INCLINATION":96.9291,"RA_OF_ASC_NODE":92.8446,"ARG_OF_PERICENTER":107.0973,"MEAN_ANOMALY":253.0367,"EPHEMERIS_TYPE":0,"CLASSIFICATION_TYPE":"U","NORAD_CAT_ID":41771,"ELEMENT_SET_NO":999,"REV_AT_EPOCH":52977,"BSTAR":0.00047130453,"MEAN_MOTION_DOT":0.00022388,"MEAN_MOTION_DDOT":0},{"OBJECT_NAME":"SKYSAT-C5","OBJECT_ID":"2016-058C","EPOCH":"2026-03-07T14:35:38.050656","MEAN_MOTION":15.34240804,"ECCENTRICITY":0.00017774,"INCLINATION":97.0613,"RA_OF_ASC_NODE":111.7626,"ARG_OF_PERICENTER":84.1096,"MEAN_ANOMALY":276.035,"EPHEMERIS_TYPE":0,"CLASSIFICATION_TYPE":"U","NORAD_CAT_ID":41772,"ELEMENT_SET_NO":999,"REV_AT_EPOCH":52817,"BSTAR":0.00038380003,"MEAN_MOTION_DOT":0.00012654,"MEAN_MOTION_DDOT":0},{"OBJECT_NAME":"SKYSAT-C2","OBJECT_ID":"2016-058D","EPOCH":"2026-03-07T15:05:09.041568","MEAN_MOTION":15.39632616,"ECCENTRICITY":0.00051593,"INCLINATION":97.0281,"RA_OF_ASC_NODE":92.6607,"ARG_OF_PERICENTER":72.9241,"MEAN_ANOMALY":287.257,"EPHEMERIS_TYPE":0,"CLASSIFICATION_TYPE":"U","NORAD_CAT_ID":41773,"ELEMENT_SET_NO":999,"REV_AT_EPOCH":52941,"BSTAR":0.00043728718,"MEAN_MOTION_DOT":0.00017184,"MEAN_MOTION_DDOT":0},{"OBJECT_NAME":"SKYSAT-C3","OBJECT_ID":"2016-058E","EPOCH":"2026-03-07T14:51:36.037440","MEAN_MOTION":15.48204968,"ECCENTRICITY":0.0001678,"INCLINATION":96.9176,"RA_OF_ASC_NODE":101.5783,"ARG_OF_PERICENTER":107.1343,"MEAN_ANOMALY":253.0092,"EPHEMERIS_TYPE":0,"CLASSIFICATION_TYPE":"U","NORAD_CAT_ID":41774,"ELEMENT_SET_NO":999,"REV_AT_EPOCH":53037,"BSTAR":0.00054206454,"MEAN_MOTION_DOT":0.00028507,"MEAN_MOTION_DDOT":0},{"OBJECT_NAME":"SKYSAT-C11","OBJECT_ID":"2017-068A","EPOCH":"2026-03-07T14:08:51.396000","MEAN_MOTION":15.52237439,"ECCENTRICITY":7.118e-5,"INCLINATION":97.4201,"RA_OF_ASC_NODE":211.5044,"ARG_OF_PERICENTER":86.4753,"MEAN_ANOMALY":273.6581,"EPHEMERIS_TYPE":0,"CLASSIFICATION_TYPE":"U","NORAD_CAT_ID":42987,"ELEMENT_SET_NO":999,"REV_AT_EPOCH":46745,"BSTAR":0.00070249953,"MEAN_MOTION_DOT":0.00042689,"MEAN_MOTION_DDOT":0},{"OBJECT_NAME":"SKYSAT-C10","OBJECT_ID":"2017-068B","EPOCH":"2026-03-07T12:17:17.421216","MEAN_MOTION":15.32615453,"ECCENTRICITY":0.00010514,"INCLINATION":97.4337,"RA_OF_ASC_NODE":202.6131,"ARG_OF_PERICENTER":89.5431,"MEAN_ANOMALY":270.5932,"EPHEMERIS_TYPE":0,"CLASSIFICATION_TYPE":"U","NORAD_CAT_ID":42988,"ELEMENT_SET_NO":999,"REV_AT_EPOCH":46677,"BSTAR":0.0005209626,"MEAN_MOTION_DOT":0.00016346,"MEAN_MOTION_DDOT":0},{"OBJECT_NAME":"SKYSAT-C9","OBJECT_ID":"2017-068C","EPOCH":"2026-03-07T15:10:26.484672","MEAN_MOTION":15.38807245,"ECCENTRICITY":0.00097411,"INCLINATION":97.4263,"RA_OF_ASC_NODE":202.7533,"ARG_OF_PERICENTER":139.6223,"MEAN_ANOMALY":220.5748,"EPHEMERIS_TYPE":0,"CLASSIFICATION_TYPE":"U","NORAD_CAT_ID":42989,"ELEMENT_SET_NO":999,"REV_AT_EPOCH":46712,"BSTAR":0.00054973212,"MEAN_MOTION_DOT":0.00021076,"MEAN_MOTION_DDOT":0},{"OBJECT_NAME":"SKYSAT-C8","OBJECT_ID":"2017-068D","EPOCH":"2026-03-07T08:51:18.753984","MEAN_MOTION":15.34686204,"ECCENTRICITY":0.00011596,"INCLINATION":97.4333,"RA_OF_ASC_NODE":201.8956,"ARG_OF_PERICENTER":14.0806,"MEAN_ANOMALY":346.0469,"EPHEMERIS_TYPE":0,"CLASSIFICATION_TYPE":"U","NORAD_CAT_ID":42990,"ELEMENT_SET_NO":999,"REV_AT_EPOCH":46668,"BSTAR":0.00023415862,"MEAN_MOTION_DOT":7.791e-5,"MEAN_MOTION_DDOT":0},{"OBJECT_NAME":"SKYSAT-C7","OBJECT_ID":"2017-068E","EPOCH":"2026-03-07T14:52:29.985600","MEAN_MOTION":15.3465384,"ECCENTRICITY":0.00073918,"INCLINATION":97.4365,"RA_OF_ASC_NODE":203.1357,"ARG_OF_PERICENTER":109.9574,"MEAN_ANOMALY":250.2466,"EPHEMERIS_TYPE":0,"CLASSIFICATION_TYPE":"U","NORAD_CAT_ID":42991,"ELEMENT_SET_NO":999,"REV_AT_EPOCH":46678,"BSTAR":0.00051889454,"MEAN_MOTION_DOT":0.00017379,"MEAN_MOTION_DDOT":0},{"OBJECT_NAME":"SKYSAT-C6","OBJECT_ID":"2017-068F","EPOCH":"2026-03-07T08:26:46.837536","MEAN_MOTION":15.32430772,"ECCENTRICITY":0.00035533,"INCLINATION":97.4399,"RA_OF_ASC_NODE":203.1575,"ARG_OF_PERICENTER":133.8042,"MEAN_ANOMALY":226.3494,"EPHEMERIS_TYPE":0,"CLASSIFICATION_TYPE":"U","NORAD_CAT_ID":42992,"ELEMENT_SET_NO":999,"REV_AT_EPOCH":46671,"BSTAR":0.00050832762,"MEAN_MOTION_DOT":0.00015857,"MEAN_MOTION_DDOT":0},{"OBJECT_NAME":"SKYSAT-C12","OBJECT_ID":"2018-099AR","EPOCH":"2026-03-07T14:55:43.666752","MEAN_MOTION":15.45510326,"ECCENTRICITY":0.00053641,"INCLINATION":96.9382,"RA_OF_ASC_NODE":94.1235,"ARG_OF_PERICENTER":143.819,"MEAN_ANOMALY":216.3424,"EPHEMERIS_TYPE":0,"CLASSIFICATION_TYPE":"U","NORAD_CAT_ID":43797,"ELEMENT_SET_NO":999,"REV_AT_EPOCH":40615,"BSTAR":0.00048226966,"MEAN_MOTION_DOT":0.000231,"MEAN_MOTION_DDOT":0},{"OBJECT_NAME":"SKYSAT-C13","OBJECT_ID":"2018-099AW","EPOCH":"2026-03-07T15:12:44.924256","MEAN_MOTION":15.76282592,"ECCENTRICITY":0.0003752,"INCLINATION":96.9404,"RA_OF_ASC_NODE":114.265,"ARG_OF_PERICENTER":206.4329,"MEAN_ANOMALY":153.6747,"EPHEMERIS_TYPE":0,"CLASSIFICATION_TYPE":"U","NORAD_CAT_ID":43802,"ELEMENT_SET_NO":999,"REV_AT_EPOCH":40684,"BSTAR":0.00066535278,"MEAN_MOTION_DOT":0.00105253,"MEAN_MOTION_DDOT":0},{"OBJECT_NAME":"FLOCK 4Q-16","OBJECT_ID":"2023-174R","EPOCH":"2026-03-07T03:56:43.518048","MEAN_MOTION":15.44609004,"ECCENTRICITY":0.0007938,"INCLINATION":97.3863,"RA_OF_ASC_NODE":152.251,"ARG_OF_PERICENTER":166.7513,"MEAN_ANOMALY":193.3946,"EPHEMERIS_TYPE":0,"CLASSIFICATION_TYPE":"U","NORAD_CAT_ID":58271,"ELEMENT_SET_NO":999,"REV_AT_EPOCH":12980,"BSTAR":0.00062289148,"MEAN_MOTION_DOT":0.00028991,"MEAN_MOTION_DDOT":0}]
