SKYSAT-A                
1 39418U 13066C   26066.58441375  .00004153  00000+0  24223-3 0  9996
2 39418  97.3953 119.1932 0020279 308.3336  51.6071 15.12334062673121
SKYSAT-B                
1 40072U 14037D   26066.57729854  .00002387  00000+0  26853-3 0  9991
2 40072  98.3727  19.8426 0004273 242.0706 118.0076 14.87716938630857
SKYSAT-C1               
1 41601U 16040C   26066.61411968  .00013017  00000+0  39190-3 0  9995
2 41601  96.9701 103.8960 0003715  57.3782 302.7820 15.34459732542287
SKYSAT-C4               
1 41771U 16058B   26066.64804594  .00022388  00000+0  47130-3 0  9990
2 41771  96.9291  92.8446 0000818 107.0973 253.0367 15.45286446529776
SKYSAT-C5               
1 41772U 16058C   26066.60807929  .00012654  00000+0  38380-3 0  9994
2 41772  97.0613 111.7626 0001777  84.1096 276.0350 15.34240804528170
SKYSAT-C2               
1 41773U 16058D   26066.62857687  .00017184  00000+0  43729-3 0  9999
2 41773  97.0281  92.6607 0005159  72.9241 287.2570 15.39632616529410
SKYSAT-C3               
1 41774U 16058E   26066.61916710  .00028507  00000+0  54206-3 0  9995
2 41774  96.9176 101.5783 0001678 107.1343 253.0092 15.48204968530375
SKYSAT-C11              
1 42987U 17068A   26066.58948375  .00042689  00000+0  70250-3 0  9996
2 42987  97.4201 211.5044 0000711  86.4753 273.6581 15.52237439467453
SKYSAT-C10              
1 42988U 17068B   26066.51200719  .00016346  00000+0  52096-3 0  9992
2 42988  97.4337 202.6131 0001051  89.5431 270.5932 15.32615453466771
SKYSAT-C9               
1 42989U 17068C   26066.63225098  .00021076  00000+0  54973-3 0  9995
2 42989  97.4263 202.7533 0009741 139.6223 220.5748 15.38807245467125
SKYSAT-C8               
1 42990U 17068D   26066.36896706  .00007791  00000+0  23416-3 0  9993
2 42990  97.4333 201.8956 0001159  14.0806 346.0469 15.34686204466682
SKYSAT-C7               
1 42991U 17068E   26066.61979150  .00017379  00000+0  51889-3 0  9995
2 42991  97.4365 203.1357 0007391 109.9574 250.2466 15.34653840466782
SKYSAT-C6               
1 42992U 17068F   26066.35193099  .00015857  00000+0  50833-3 0  9994
2 42992  97.4399 203.1575 0003553 133.8042 226.3494 15.32430772466717
SKYSAT-C12              
1 43797U 18099AR  26066.62203318  .00023100  00000+0  48227-3 0  9993
2 43797  96.9382  94.1235 0005364 143.8190 216.3424 15.45510326406157
SKYSAT-C13              
1 43802U 18099AW  26066.63385329  .00105253  00000+0  66535-3 0  9996
2 43802  96.9404 114.2650 0003752 206.4329 153.6747 15.76282592406845
FLOCK 4Q-16             
1 58271U 23174R   26066.16439257  .00028991  00000+0  62289-3 0  9995
2 58271  97.3863 152.2510 0007938 166.7513 193.3946 15.44609004129801
